FENGYUN 3A              
1 32958U 08026A   24026.81537002  .00000287  00000+0  15776-3 0  9998
2 32958  98.5871 338.1965 0009599 119.6545 240.5588 14.19003045811778
FENGYUN 2E              
1 33463U 08066A   24026.63705883 -.00000205  00000+0  00000+0 0  9999
2 33463   7.2254  61.3647 0001485 282.8360  97.3244  1.00273756 55342
NOAA 19                 
1 33591U 09005A   24026.75601050  .00000301  00000+0  18622-3 0  9998
2 33591  99.0697  80.9221 0013375 337.2116  22.8460 14.12914541771512
GOES 14                 
1 35491U 09033A   24026.66984939 -.00000064  00000+0  00000+0 0  9994
2 35491   0.0650 221.0699 0000804 125.2476 271.7337  1.00273168 53403
DMSP 5D-3 F18 (USA 210) 
1 35951U 09057A   24026.82788796  .00000478  00000+0  27486-3 0  9991
2 35951  98.7972   4.2322 0010511 207.7086 152.3528 14.13978169736245
EWS-G2 (GOES 15)        
1 36411U 10008A   24026.56047882  .00000038  00000+0  00000+0 0  9997
2 36411   0.0609 257.1262 0005012  15.7399 115.9765  1.00266904 50882
COMS 1                  
1 36744U 10032A   24026.57370626 -.00000344  00000+0  00000+0 0  9990
2 36744   2.5681  86.6251 0001015 217.0802 156.3356  1.00273073 42348
FENGYUN 3B              
1 37214U 10059A   24026.81239677  .00000192  00000+0  12367-3 0  9992
2 37214  99.0702  52.8166 0022917 133.3886 278.8801 14.14435949684126
SUOMI NPP               
1 37849U 11061A   24026.80515631  .00000207  00000+0  11908-3 0  9993
2 37849  98.7282 326.9425 0001030  60.7405 299.3874 14.19548404634663
FENGYUN 2F              
1 38049U 12002A   24026.64210615 -.00000357  00000+0  00000+0 0  9992
2 38049   5.2392  74.5453 0001495  29.7272   4.4228  1.00267915 44147
METEOSAT-10 (MSG-3)     
1 38552U 12035B   24026.34980010 -.00000004  00000+0  00000+0 0  9996
2 38552   2.6482  59.6500 0001238 241.4545 310.0917  1.00276230 42100
METOP-B                 
1 38771U 12049A   24026.77847311  .00000250  00000+0  13402-3 0  9993
2 38771  98.6495  87.0625 0001710  91.9612 268.1762 14.21460712589310
FENGYUN 3C              
1 39260U 13052A   24026.87247480  .00000216  00000+0  12976-3 0  9991
2 39260  98.4272  34.0415 0011487  23.3043 336.8651 14.16138608535189
METEOR-M 2              
1 40069U 14037A   24026.78901629  .00000293  00000+0  15445-3 0  9995
2 40069  98.4306  27.4439 0006712  58.5065 301.6768 14.20879683495406
HIMAWARI-8              
1 40267U 14060A   24026.79979843 -.00000273  00000+0  00000+0 0  9991
2 40267   0.0473 241.0314 0000975  44.3845 268.7171  1.00273932 34117
FENGYUN 2G              
1 40367U 14090A   24026.78289399 -.00000301  00000+0  00000+0 0  9996
2 40367   3.4250  83.1889 0000671 359.1218  64.7714  1.00266513 33296
METEOSAT-11 (MSG-4)     
1 40732U 15034A   24026.26355719  .00000063  00000+0  00000+0 0  9998
2 40732   1.0468  64.1097 0002492 201.7136 323.3281  1.00269155 31264
ELEKTRO-L 2             
1 41105U 15074A   24026.04399876 -.00000117  00000+0  00000+0 0  9996
2 41105   4.4758  81.1980 0003574 198.9049 206.0873  1.00271555 29752
HIMAWARI-9              
1 41836U 16064A   24026.57622993 -.00000273  00000+0  00000+0 0  9997
2 41836   0.0203  88.8419 0000849 222.5814 162.1610  1.00268978 26457
GOES 16                 
1 41866U 16071A   24026.24676178 -.00000246  00000+0  00000+0 0  9996
2 41866   0.0739 254.6469 0001299  77.5424 166.4479  1.00271016 26353
FENGYUN 4A              
1 41882U 16077A   24026.56900705 -.00000327  00000+0  00000+0 0  9991
2 41882   0.0983  67.8201 0005191 336.1597  30.7641  1.00270034 26173
CYGFM05                 
1 41884U 16078A   24026.52930351  .00009377  00000+0  37983-3 0  9997
2 41884  34.9545 121.9762 0012202 336.1425  23.8723 15.23841568394280
CYGFM04                 
1 41885U 16078B   24026.53311516  .00009883  00000+0  39086-3 0  9993
2 41885  34.9474 107.3036 0010744   1.6575 358.4174 15.24648129394368
CYGFM02                 
1 41886U 16078C   24026.57944210  .00009462  00000+0  37377-3 0  9995
2 41886  34.9558 109.4846 0011385 350.5778   9.4721 15.24687989394455
CYGFM01                 
1 41887U 16078D   24026.55086638  .00009303  00000+0  37974-3 0  9992
2 41887  34.9506 125.3302 0012861 334.4231  25.5846 15.23575200394221
CYGFM08                 
1 41888U 16078E   24026.51917281  .00009280  00000+0  37135-3 0  9999
2 41888  34.9478 114.9352 0011598 350.1824   9.8663 15.24257707394387
CYGFM07                 
1 41890U 16078G   24026.53215449  .00009966  00000+0  39310-3 0  9999
2 41890  34.9499 106.8206 0010300 358.9270   1.1421 15.24740045394370
CYGFM03                 
1 41891U 16078H   24026.49494190  .00008939  00000+0  35344-3 0  9999
2 41891  34.9535 108.1078 0009497 351.1061   8.9484 15.24683812394352
FENGYUN 3D              
1 43010U 17072A   24026.83376616  .00000228  00000+0  13028-3 0  9997
2 43010  98.8927 340.8071 0002216  48.1745 311.9620 14.19274020321228
NOAA 20                 
1 43013U 17073A   24026.84009208  .00000179  00000+0  10587-3 0  9994
2 43013  98.7361 326.9409 0000896 118.1267 242.0000 14.19538249320705
GOES 17                 
1 43226U 18022A   24026.61300618 -.00000089  00000+0  00000+0 0  9995
2 43226   0.0276 147.6227 0001852 135.9573 317.8052  1.00271958 21688
FENGYUN 2H              
1 43491U 18050A   24026.56395972 -.00000129  00000+0  00000+0 0  9996
2 43491   0.7732  88.3026 0000538 334.2737 345.1849  1.00271557 20682
METOP-C                 
1 43689U 18087A   24026.74534756  .00000242  00000+0  13056-3 0  9994
2 43689  98.7014  87.9295 0003497 120.7090 239.4433 14.21501760270883
GEO-KOMPSAT-2A          
1 43823U 18100A   24026.28722737 -.00000343  00000+0  00000+0 0  9991
2 43823   0.0135 142.7316 0000683 243.2206 330.7528  1.00270605 18874
METEOR-M2 2             
1 44387U 19038A   24026.85215729  .00000122  00000+0  73013-4 0  9992
2 44387  98.8084 355.6625 0001886  45.7343 314.3990 14.23846125237137
ARKTIKA-M 1             
1 47719U 21016A   24026.18874713  .00000129  00000+0  00000+0 0  9991
2 47719  63.1423 167.9406 6902254 269.0517  18.1133  2.00601252 21288
FENGYUN 3E              
1 49008U 21062A   24026.77642662  .00000067  00000+0  52221-4 0  9994
2 49008  98.7298  29.9852 0002622  85.2839 274.8637 14.19725036132784
GOES 18                 
1 51850U 22021A   24026.38542779  .00000099  00000+0  00000+0 0  9991
2 51850   0.0012  52.8880 0000734 205.9237 228.0909  1.00272485  7036
NOAA 21 (JPSS-2)        
1 54234U 22150A   24026.57472691  .00000223  00000+0  12635-3 0  9999
2 54234  98.7396 326.2404 0001239 104.0069 256.1245 14.19566048 62746
METEOSAT-12 (MTG-I1)    
1 54743U 22170C   24024.01507789 -.00000030  00000+0  00000+0 0  9996
2 54743   0.3900 356.6471 0001839 276.5793 211.4766  1.00272576  4202
TIANMU-1 03             
1 55973U 23039A   24026.78270352  .00010762  00000+0  46066-3 0  9994
2 55973  97.4491 178.1218 0011896 247.5111 112.4866 15.22917773 47169
TIANMU-1 04             
1 55974U 23039B   24026.76446423  .00011472  00000+0  49102-3 0  9990
2 55974  97.4412 177.8180 0008852 246.9817 113.0487 15.22932562 47159
TIANMU-1 05             
1 55975U 23039C   24026.75000249  .00011023  00000+0  47259-3 0  9995
2 55975  97.4462 178.0343 0004940 236.6676 123.4088 15.22909304 47141
TIANMU-1 06             
1 55976U 23039D   24026.73423078  .00010543  00000+0  45226-3 0  9991
2 55976  97.4475 178.1086 0004388 238.6700 121.4108 15.22905504 47146
METEOR-M2 3             
1 57166U 23091A   24026.74788506  .00000048  00000+0  40156-4 0  9990
2 57166  98.7353  82.5579 0004171 168.5273 191.6001 14.23867919 30352
TIANMU-1 07             
1 57399U 23101A   24026.73372326  .00006340  00000+0  34111-3 0  9992
2 57399  97.3847  87.9472 0004054 342.6876  17.4217 15.15186835 28846
TIANMU-1 08             
1 57400U 23101B   24026.76821173  .00006921  00000+0  37203-3 0  9997
2 57400  97.3838  87.8758 0006565 338.5081  21.5875 15.15175297 28842
TIANMU-1 09             
1 57401U 23101C   24026.74955931  .00006441  00000+0  34637-3 0  9991
2 57401  97.3792  87.7875 0006688 332.7311  27.3569 15.15185790 28842
TIANMU-1 10             
1 57402U 23101D   24026.78116546  .00007289  00000+0  39057-3 0  9999
2 57402  97.3872  87.9456 0009277 331.1080  28.9638 15.15254862 28843
FENGYUN 3F              
1 57490U 23111A   24026.80630090  .00000174  00000+0  10311-3 0  9993
2 57490  98.7883  97.1526 0001761 115.1939 244.9419 14.19759836 25063
TIANMU-1 11             
1 58645U 23205A   24026.80431690  .00006041  00000+0  33631-3 0  9994
2 58645  97.4185  55.5719 0012117 157.2351 202.9420 15.13935914  4961
TIANMU-1 12             
1 58646U 23205B   24026.80835667  .00006495  00000+0  36370-3 0  9993
2 58646  97.4170  55.5603 0010986 153.4310 206.7487 15.13706765  4957
TIANMU-1 13             
1 58647U 23205C   24026.81706728  .00006634  00000+0  37643-3 0  9999
2 58647  97.4199  55.5620 0011359 147.1799 213.0140 15.13224134  4956
TIANMU-1 14             
1 58648U 23205D   24026.80920747  .00006359  00000+0  35670-3 0  9990
2 58648  97.4125  55.5395 0011680 151.1077 209.0804 15.13647409  4952
TIANMU-1 19             
1 58660U 23208A   24026.80564829  .00008369  00000+0  47335-3 0  9996
2 58660  97.4003 143.0875 0012097 137.7532 222.4633 15.13248962  4620
TIANMU-1 20             
1 58661U 23208B   24026.79626651  .00008335  00000+0  45938-3 0  9997
2 58661  97.3928 143.0680 0011690 149.0938 211.0985 15.14180694  4626
TIANMU-1 21             
1 58662U 23208C   24026.79353356  .00008900  00000+0  48717-3 0  9993
2 58662  97.3974 143.0903 0010712 149.5904 210.5952 15.14416672  4624
TIANMU-1 22             
1 58663U 23208D   24026.78708103  .00008502  00000+0  46147-3 0  9990
2 58663  97.3989 143.1045 0011139 157.8168 202.3548 15.14727684  4625
